[{"OBJECT_NAME":"ONEWEB-0018","OBJECT_ID":"2020-020L","EPOCH":"2025-11-10T13:13:56.360928","MEAN_MOTION":13.1141285,"ECCENTRICITY":0.00017093,"INCLINATION":87.8864,"RA_OF_ASC_NODE":64.5992,"ARG_OF_PERICENTER":106.7812,"MEAN_ANOMALY":253.3503,"EPHEMERIS_TYPE":0,"CLASSIFICATION_TYPE":"U","NORAD_CAT_ID":45434,"ELEMENT_SET_NO":999,"REV_AT_EPOCH":27397,"BSTAR":-9.358971e-5,"MEAN_MOTION_DOT":-2.0e-7,"MEAN_MOTION_DDOT":0},{"OBJECT_NAME":"ONEWEB-0083","OBJECT_ID":"2020-020M","EPOCH":"2025-11-10T13:00:31.820544","MEAN_MOTION":13.11417141,"ECCENTRICITY":0.00017024,"INCLINATION":87.886,"RA_OF_ASC_NODE":64.5901,"ARG_OF_PERICENTER":103.011,"MEAN_ANOMALY":257.1208,"EPHEMERIS_TYPE":0,"CLASSIFICATION_TYPE":"U","NORAD_CAT_ID":45435,"ELEMENT_SET_NO":999,"REV_AT_EPOCH":27401,"BSTAR":0.0010357891,"MEAN_MOTION_DOT":3.8e-6,"MEAN_MOTION_DDOT":0},{"OBJECT_NAME":"ONEWEB-0095","OBJECT_ID":"2020-020N","EPOCH":"2025-11-10T18:16:54.757632","MEAN_MOTION":13.11416306,"ECCENTRICITY":0.0001262,"INCLINATION":87.8854,"RA_OF_ASC_NODE":64.5603,"ARG_OF_PERICENTER":74.973,"MEAN_ANOMALY":285.1538,"EPHEMERIS_TYPE":0,"CLASSIFICATION_TYPE":"U","NORAD_CAT_ID":45436,"ELEMENT_SET_NO":999,"REV_AT_EPOCH":27404,"BSTAR":0.0017401241,"MEAN_MOTION_DOT":6.29e-6,"MEAN_MOTION_DDOT":0},{"OBJECT_NAME":"ONEWEB-0092","OBJECT_ID":"2020-020P","EPOCH":"2025-11-10T17:36:23.812416","MEAN_MOTION":13.11418369,"ECCENTRICITY":0.00014053,"INCLINATION":87.886,"RA_OF_ASC_NODE":64.5626,"ARG_OF_PERICENTER":96.0129,"MEAN_ANOMALY":264.1159,"EPHEMERIS_TYPE":0,"CLASSIFICATION_TYPE":"U","NORAD_CAT_ID":45437,"ELEMENT_SET_NO":999,"REV_AT_EPOCH":27415,"BSTAR":-0.0013561957,"MEAN_MOTION_DOT":-4.68e-6,"MEAN_MOTION_DDOT":0},{"OBJECT_NAME":"ONEWEB-0085","OBJECT_ID":"2020-020Q","EPOCH":"2025-11-10T12:59:19.137408","MEAN_MOTION":13.11414671,"ECCENTRICITY":0.0001623,"INCLINATION":87.8856,"RA_OF_ASC_NODE":64.6111,"ARG_OF_PERICENTER":103.2915,"MEAN_ANOMALY":256.8394,"EPHEMERIS_TYPE":0,"CLASSIFICATION_TYPE":"U","NORAD_CAT_ID":45438,"ELEMENT_SET_NO":999,"REV_AT_EPOCH":27401,"BSTAR":0.0010803543,"MEAN_MOTION_DOT":3.96e-6,"MEAN_MOTION_DDOT":0},{"OBJECT_NAME":"ONEWEB-0096","OBJECT_ID":"2020-020R","EPOCH":"2025-11-10T13:01:45.022944","MEAN_MOTION":13.1141483,"ECCENTRICITY":0.00017291,"INCLINATION":87.8862,"RA_OF_ASC_NODE":64.5875,"ARG_OF_PERICENTER":110.5713,"MEAN_ANOMALY":249.5601,"EPHEMERIS_TYPE":0,"CLASSIFICATION_TYPE":"U","NORAD_CAT_ID":45439,"ELEMENT_SET_NO":999,"REV_AT_EPOCH":27400,"BSTAR":0.0011040957,"MEAN_MOTION_DOT":4.04e-6,"MEAN_MOTION_DDOT":0},{"OBJECT_NAME":"ONEWEB-0037","OBJECT_ID":"2020-020S","EPOCH":"2025-11-10T18:03:17.293536","MEAN_MOTION":13.11418411,"ECCENTRICITY":0.00015365,"INCLINATION":87.8873,"RA_OF_ASC_NODE":64.514,"ARG_OF_PERICENTER":99.068,"MEAN_ANOMALY":261.0622,"EPHEMERIS_TYPE":0,"CLASSIFICATION_TYPE":"U","NORAD_CAT_ID":45440,"ELEMENT_SET_NO":999,"REV_AT_EPOCH":27406,"BSTAR":0.0012356876,"MEAN_MOTION_DOT":4.51e-6,"MEAN_MOTION_DDOT":0},{"OBJECT_NAME":"ONEWEB-0042","OBJECT_ID":"2020-020T","EPOCH":"2025-11-10T18:16:30.995040","MEAN_MOTION":13.11416626,"ECCENTRICITY":0.00015116,"INCLINATION":87.8862,"RA_OF_ASC_NODE":64.5453,"ARG_OF_PERICENTER":103.3789,"MEAN_ANOMALY":256.7507,"EPHEMERIS_TYPE":0,"CLASSIFICATION_TYPE":"U","NORAD_CAT_ID":45441,"ELEMENT_SET_NO":999,"REV_AT_EPOCH":27403,"BSTAR":0.0019505976,"MEAN_MOTION_DOT":7.04e-6,"MEAN_MOTION_DDOT":0},{"OBJECT_NAME":"ONEWEB-0098","OBJECT_ID":"2020-020U","EPOCH":"2025-11-10T18:10:36.819840","MEAN_MOTION":13.11417235,"ECCENTRICITY":0.0001713,"INCLINATION":87.8861,"RA_OF_ASC_NODE":64.5578,"ARG_OF_PERICENTER":100.7239,"MEAN_ANOMALY":259.4082,"EPHEMERIS_TYPE":0,"CLASSIFICATION_TYPE":"U","NORAD_CAT_ID":45442,"ELEMENT_SET_NO":999,"REV_AT_EPOCH":27401,"BSTAR":0.0017620244,"MEAN_MOTION_DOT":6.37e-6,"MEAN_MOTION_DDOT":0},{"OBJECT_NAME":"ONEWEB-0055","OBJECT_ID":"2020-020V","EPOCH":"2025-11-10T14:06:25.841376","MEAN_MOTION":13.11418512,"ECCENTRICITY":0.00018234,"INCLINATION":87.887,"RA_OF_ASC_NODE":64.5935,"ARG_OF_PERICENTER":103.3091,"MEAN_ANOMALY":256.8241,"EPHEMERIS_TYPE":0,"CLASSIFICATION_TYPE":"U","NORAD_CAT_ID":45443,"ELEMENT_SET_NO":999,"REV_AT_EPOCH":27396,"BSTAR":-0.0006213199,"MEAN_MOTION_DOT":-2.08e-6,"MEAN_MOTION_DDOT":0},{"OBJECT_NAME":"ONEWEB-0093","OBJECT_ID":"2020-020W","EPOCH":"2025-11-10T17:10:58.515456","MEAN_MOTION":13.11417632,"ECCENTRICITY":0.00013816,"INCLINATION":87.8862,"RA_OF_ASC_NODE":64.5534,"ARG_OF_PERICENTER":118.0523,"MEAN_ANOMALY":242.0745,"EPHEMERIS_TYPE":0,"CLASSIFICATION_TYPE":"U","NORAD_CAT_ID":45444,"ELEMENT_SET_NO":999,"REV_AT_EPOCH":27404,"BSTAR":-0.0012228692,"MEAN_MOTION_DOT":-4.21e-6,"MEAN_MOTION_DDOT":0},{"OBJECT_NAME":"ONEWEB-0029","OBJECT_ID":"2020-020X","EPOCH":"2025-11-10T17:33:58.352832","MEAN_MOTION":13.11418588,"ECCENTRICITY":0.00016179,"INCLINATION":87.8862,"RA_OF_ASC_NODE":64.5628,"ARG_OF_PERICENTER":106.8358,"MEAN_ANOMALY":253.2947,"EPHEMERIS_TYPE":0,"CLASSIFICATION_TYPE":"U","NORAD_CAT_ID":45445,"ELEMENT_SET_NO":999,"REV_AT_EPOCH":27402,"BSTAR":-0.00093621556,"MEAN_MOTION_DOT":-3.19e-6,"MEAN_MOTION_DDOT":0},{"OBJECT_NAME":"ONEWEB-0068","OBJECT_ID":"2020-020Y","EPOCH":"2025-11-10T17:10:34.020192","MEAN_MOTION":13.11414053,"ECCENTRICITY":0.00016422,"INCLINATION":87.8864,"RA_OF_ASC_NODE":64.5544,"ARG_OF_PERICENTER":109.2139,"MEAN_ANOMALY":250.9166,"EPHEMERIS_TYPE":0,"CLASSIFICATION_TYPE":"U","NORAD_CAT_ID":45446,"ELEMENT_SET_NO":999,"REV_AT_EPOCH":27396,"BSTAR":-0.0013641335,"MEAN_MOTION_DOT":-4.71e-6,"MEAN_MOTION_DDOT":0},{"OBJECT_NAME":"ONEWEB-0046","OBJECT_ID":"2020-020Z","EPOCH":"2025-11-10T18:48:25.771968","MEAN_MOTION":13.11414211,"ECCENTRICITY":0.00013563,"INCLINATION":87.8862,"RA_OF_ASC_NODE":64.5493,"ARG_OF_PERICENTER":105.2976,"MEAN_ANOMALY":254.8302,"EPHEMERIS_TYPE":0,"CLASSIFICATION_TYPE":"U","NORAD_CAT_ID":45447,"ELEMENT_SET_NO":999,"REV_AT_EPOCH":27398,"BSTAR":-0.00036712175,"MEAN_MOTION_DOT":-1.17e-6,"MEAN_MOTION_DDOT":0},{"OBJECT_NAME":"ONEWEB-0063","OBJECT_ID":"2020-020AA","EPOCH":"2025-11-10T17:40:04.338912","MEAN_MOTION":13.11420645,"ECCENTRICITY":0.00014283,"INCLINATION":87.8863,"RA_OF_ASC_NODE":64.5568,"ARG_OF_PERICENTER":97.4957,"MEAN_ANOMALY":262.6334,"EPHEMERIS_TYPE":0,"CLASSIFICATION_TYPE":"U","NORAD_CAT_ID":45448,"ELEMENT_SET_NO":999,"REV_AT_EPOCH":27406,"BSTAR":-0.00042050251,"MEAN_MOTION_DOT":-1.36e-6,"MEAN_MOTION_DDOT":0},{"OBJECT_NAME":"ONEWEB-0019","OBJECT_ID":"2020-020AB","EPOCH":"2025-11-10T07:52:53.613984","MEAN_MOTION":13.11416441,"ECCENTRICITY":0.00017267,"INCLINATION":87.8849,"RA_OF_ASC_NODE":64.6513,"ARG_OF_PERICENTER":103.167,"MEAN_ANOMALY":256.9651,"EPHEMERIS_TYPE":0,"CLASSIFICATION_TYPE":"U","NORAD_CAT_ID":45449,"ELEMENT_SET_NO":999,"REV_AT_EPOCH":27385,"BSTAR":-0.0010612072,"MEAN_MOTION_DOT":-3.63e-6,"MEAN_MOTION_DDOT":0}]
