ONEWEB-0018             
1 45434U 20020L   25314.55134677 -.00000020  00000+0 -93590-4 0  9990
2 45434  87.8864  64.5992 0001709 106.7812 253.3503 13.11412850273975
ONEWEB-0083             
1 45435U 20020M   25314.54203496  .00000380  00000+0  10358-2 0  9992
2 45435  87.8860  64.5901 0001702 103.0110 257.1208 13.11417141274014
ONEWEB-0095             
1 45436U 20020N   25314.76174488  .00000629  00000+0  17401-2 0  9997
2 45436  87.8854  64.5603 0001262  74.9730 285.1538 13.11416306274044
ONEWEB-0092             
1 45437U 20020P   25314.73360894 -.00000468  00000+0 -13562-2 0  9990
2 45437  87.8860  64.5626 0001405  96.0129 264.1159 13.11418369274152
ONEWEB-0085             
1 45438U 20020Q   25314.54119372  .00000396  00000+0  10804-2 0  9997
2 45438  87.8856  64.6111 0001623 103.2915 256.8394 13.11414671274010
ONEWEB-0096             
1 45439U 20020R   25314.54288221  .00000404  00000+0  11041-2 0  9992
2 45439  87.8862  64.5875 0001729 110.5713 249.5601 13.11414830274004
ONEWEB-0037             
1 45440U 20020S   25314.75228349  .00000451  00000+0  12357-2 0  9995
2 45440  87.8873  64.5140 0001536  99.0680 261.0622 13.11418411274060
ONEWEB-0042             
1 45441U 20020T   25314.76146985  .00000704  00000+0  19506-2 0  9996
2 45441  87.8862  64.5453 0001511 103.3789 256.7507 13.11416626274034
ONEWEB-0098             
1 45442U 20020U   25314.75737060  .00000637  00000+0  17620-2 0  9996
2 45442  87.8861  64.5578 0001713 100.7239 259.4082 13.11417235274010
ONEWEB-0055             
1 45443U 20020V   25314.58779909 -.00000208  00000+0 -62132-3 0  9991
2 45443  87.8870  64.5935 0001823 103.3091 256.8241 13.11418512273965
ONEWEB-0093             
1 45444U 20020W   25314.71595504 -.00000421  00000+0 -12229-2 0  9992
2 45444  87.8862  64.5534 0001381 118.0523 242.0745 13.11417632274042
ONEWEB-0029             
1 45445U 20020X   25314.73192538 -.00000319  00000+0 -93622-3 0  9998
2 45445  87.8862  64.5628 0001617 106.8358 253.2947 13.11418588274027
ONEWEB-0068             
1 45446U 20020Y   25314.71567153 -.00000471  00000+0 -13641-2 0  9997
2 45446  87.8864  64.5544 0001642 109.2139 250.9166 13.11414053273961
ONEWEB-0046             
1 45447U 20020Z   25314.78363162 -.00000117  00000+0 -36712-3 0  9991
2 45447  87.8862  64.5493 0001356 105.2976 254.8302 13.11414211273983
ONEWEB-0063             
1 45448U 20020AA  25314.73616133 -.00000136  00000+0 -42050-3 0  9999
2 45448  87.8863  64.5568 0001428  97.4957 262.6334 13.11420645274069
ONEWEB-0019             
1 45449U 20020AB  25314.32839831 -.00000363  00000+0 -10612-2 0  9997
2 45449  87.8849  64.6513 0001726 103.1670 256.9651 13.11416441273856
